OBJECT_NAME,OBJECT_ID,EPOCH,MEAN_MOTION,ECCENTRICITY,INCLINATION,RA_OF_ASC_NODE,ARG_OF_PERICENTER,MEAN_ANOMALY,EPHEMERIS_TYPE,CLASSIFICATION_TYPE,NORAD_CAT_ID,ELEMENT_SET_NO,REV_AT_EPOCH,BSTAR,MEAN_MOTION_DOT,MEAN_MOTION_DDOT
KUIPER-00513,2026-140G,2026-07-02T18:57:13.930848,15.37860840,.00069191,51.8827,323.2888,287.7091,72.3140,0,U,69598,999,363,.83549389E-3,.31339E-3,0
KUIPER-00516,2026-140H,2026-07-02T19:02:41.830944,15.37383700,.00063925,51.8824,323.3061,308.3285,51.7127,0,U,69599,999,363,.1139351E-2,.42274E-3,0
KUIPER-00517,2026-140J,2026-07-02T18:43:15.056832,15.38620916,.00108507,51.8786,323.2220,245.7274,114.2580,0,U,69600,999,363,.13853832E-2,.53761E-3,0
KUIPER-00520,2026-140K,2026-07-02T19:04:33.369888,15.37367095,.00062921,51.8842,323.3246,306.6659,53.3749,0,U,69601,999,363,.10876087E-2,.40303E-3,0
KUIPER-00522,2026-140L,2026-07-02T18:36:26.207712,15.38377061,.00139891,51.8810,323.1916,219.5888,140.4078,0,U,69602,999,363,.13560513E-2,.52251E-3,0
KUIPER-00528,2026-140M,2026-07-02T19:06:40.986144,15.37208818,.00049593,51.8817,323.3248,312.4068,47.6499,0,U,69603,999,363,.77347005E-3,.2835E-3,0
KUIPER-00532,2026-140N,2026-07-02T19:13:43.537440,15.36548378,.00053949,51.8775,323.3593,348.8056,11.2810,0,U,69604,999,363,.86658956E-3,.31147E-3,0
KUIPER-00533,2026-140P,2026-07-02T18:52:53.064192,15.38099390,.00077085,51.8805,323.2654,277.0861,82.9250,0,U,69605,999,363,.89540221E-3,.33896E-3,0
KUIPER-00534,2026-140Q,2026-07-02T18:30:10.686528,15.38502425,.00142371,51.8834,323.1665,219.8480,140.1463,0,U,69606,999,363,.1276376E-2,.49347E-3,0
KUIPER-00537,2026-140R,2026-07-02T19:23:43.458432,15.35357763,.00088587,51.8804,323.4107,5.0975,355.0100,0,U,69607,999,363,.24561074E-3,.8197E-4,0
KUIPER-00538,2026-140S,2026-07-02T19:01:55.646688,15.37492207,.00058824,51.8824,323.3102,292.2663,67.7700,0,U,69608,999,363,.84570696E-3,.3134E-3,0
KUIPER-00540,2026-140T,2026-07-02T19:10:46.514208,15.36927740,.00063208,51.8824,323.3526,334.5159,25.5515,0,U,69609,999,363,.12578229E-2,.46045E-3,0
KUIPER-00541,2026-140U,2026-07-02T18:53:58.180416,15.38101971,.00075009,51.8836,323.2767,272.7521,87.2607,0,U,69610,999,363,.84615968E-3,.32003E-3,0
KUIPER-00542,2026-140V,2026-07-02T18:51:26.198496,15.38140181,.00078668,51.8821,323.2578,254.3755,105.6365,0,U,69611,999,363,.85450955E-3,.32368E-3,0
KUIPER-00543,2026-140W,2026-07-02T19:15:21.981600,15.36569102,.00071775,51.8788,323.3631,354.1908,5.8994,0,U,69612,999,363,.46348491E-3,.16461E-3,0
KUIPER-00544,2026-140X,2026-07-02T18:55:54.758208,15.37983054,.00068002,51.8812,323.2782,272.1344,87.8864,0,U,69613,999,363,.84638447E-3,.31881E-3,0
KUIPER-00546,2026-140Y,2026-07-02T18:32:27.223584,15.38646265,.00155593,51.8820,323.1725,218.0645,141.9244,0,U,69614,999,363,.12921237E-2,.50237E-3,0
KUIPER-00547,2026-140Z,2026-07-02T15:37:06.296448,15.37577936,.00107364,51.8819,323.8609,238.7248,121.2688,0,U,69615,999,361,.10768349E-2,.40223E-3,0
KUIPER-00549,2026-140AA,2026-07-02T19:07:45.609024,15.37138549,.0006702,51.8813,323.3297,330.1329,29.9275,0,U,69616,999,363,.71554761E-3,.26137E-3,0
KUIPER-00550,2026-140AB,2026-07-03T10:00:08.000064,15.34221267,.0006755,51.8800,320.5193,11.7628,89.9904,0,U,69617,999,297,.67978928E-3,.22563E-3,0
KUIPER-00551,2026-140AC,2026-07-02T18:37:23.182464,15.37975966,.00129735,51.8808,323.1955,231.5182,128.4642,0,U,69618,999,363,.14224603E-2,.54102E-3,0
KUIPER-00554,2026-140AD,2026-07-02T18:42:36.229536,15.37700160,.00125426,51.8821,323.2179,240.2784,119.6955,0,U,69619,999,363,.75919675E-3,.28329E-3,0
KUIPER-00555,2026-140AE,2026-07-02T18:39:30.719232,15.37868680,.00123345,51.8845,323.2092,233.3236,126.6618,0,U,69620,999,363,.12829882E-2,.48539E-3,0
KUIPER-00556,2026-140AF,2026-07-02T18:41:08.263968,15.38061907,.00126949,51.8815,323.2154,220.2395,139.7653,0,U,69621,999,363,.13035959E-2,.49653E-3,0
KUIPER-00557,2026-140AG,2026-07-03T10:00:08.000064,15.37250736,.00099529,51.8826,320.1709,250.0437,24.7689,0,U,69622,999,255,.56631021E-3,.20682E-3,0
KUIPER-00560,2026-140AH,2026-07-02T18:46:34.133664,15.38623384,.00092098,51.8805,323.2360,253.9860,106.0113,0,U,69623,999,363,.13522243E-2,.52431E-3,0
KUIPER-00561,2026-140AJ,2026-07-02T18:48:51.912288,15.38402074,.00081029,51.8822,323.2556,257.4895,102.5186,0,U,69624,999,363,.8289999E-3,.3166E-3,0
KUIPER-00564,2026-140AK,2026-07-02T18:44:27.993984,15.38741718,.00095309,51.8808,323.2317,243.9675,116.0331,0,U,69625,999,363,.72054699E-3,.27772E-3,0
KUIPER-00567,2026-140AL,2026-07-02T18:38:34.718208,15.38209928,.00137488,51.8792,323.2016,222.3970,137.5956,0,U,69626,999,363,.10277255E-2,.39215E-3,0
KUIPER-00573,2026-140AM,2026-07-02T18:50:39.323040,15.37326880,.00100437,51.8793,323.2547,233.5663,126.4399,0,U,69627,999,363,.72311285E-3,.26605E-3,0
