KUIPER-00513            
1 69598U 26140G   26183.78974457  .00031339  00000+0  83549-3 0  9991
2 69598  51.8827 323.2888 0006919 287.7091  72.3140 15.37860840  3634
KUIPER-00516            
1 69599U 26140H   26183.79353971  .00042274  00000+0  11394-2 0  9993
2 69599  51.8824 323.3061 0006392 308.3285  51.7127 15.37383700  3637
KUIPER-00517            
1 69600U 26140J   26183.78003538  .00053761  00000+0  13854-2 0  9992
2 69600  51.8786 323.2220 0010850 245.7274 114.2580 15.38620916  3631
KUIPER-00520            
1 69601U 26140K   26183.79483067  .00040303  00000+0  10876-2 0  9992
2 69601  51.8842 323.3246 0006292 306.6659  53.3749 15.37367095  3638
KUIPER-00522            
1 69602U 26140L   26183.77530333  .00052251  00000+0  13561-2 0  9999
2 69602  51.8810 323.1916 0013989 219.5888 140.4078 15.38377061  3631
KUIPER-00528            
1 69603U 26140M   26183.79630771  .00028350  00000+0  77347-3 0  9995
2 69603  51.8817 323.3248 0004959 312.4068  47.6499 15.37208818  3636
KUIPER-00532            
1 69604U 26140N   26183.80119835  .00031147  00000+0  86659-3 0  9995
2 69604  51.8775 323.3593 0005394 348.8056  11.2810 15.36548378  3638
KUIPER-00533            
1 69605U 26140P   26183.78672528  .00033896  00000+0  89540-3 0  9991
2 69605  51.8805 323.2654 0007708 277.0861  82.9250 15.38099390  3638
KUIPER-00534            
1 69606U 26140Q   26183.77095702  .00049347  00000+0  12764-2 0  9995
2 69606  51.8834 323.1665 0014237 219.8480 140.1463 15.38502425  3639
KUIPER-00537            
1 69607U 26140R   26183.80814188  .00008197  00000+0  24561-3 0  9994
2 69607  51.8804 323.4107 0008858   5.0975 355.0100 15.35357763  3632
KUIPER-00538            
1 69608U 26140S   26183.79300517  .00031340  00000+0  84571-3 0  9992
2 69608  51.8824 323.3102 0005882 292.2663  67.7700 15.37492207  3635
KUIPER-00540            
1 69609U 26140T   26183.79914947  .00046045  00000+0  12578-2 0  9996
2 69609  51.8824 323.3526 0006320 334.5159  25.5515 15.36927740  3634
KUIPER-00541            
1 69610U 26140U   26183.78747894  .00032003  00000+0  84616-3 0  9994
2 69610  51.8836 323.2767 0007500 272.7521  87.2607 15.38101971  3631
KUIPER-00542            
1 69611U 26140V   26183.78571989  .00032368  00000+0  85451-3 0  9997
2 69611  51.8821 323.2578 0007866 254.3755 105.6365 15.38140181  3638
KUIPER-00543            
1 69612U 26140W   26183.80233775  .00016461  00000+0  46348-3 0  9997
2 69612  51.8788 323.3631 0007177 354.1908   5.8994 15.36569102  3631
KUIPER-00544            
1 69613U 26140X   26183.78882822  .00031881  00000+0  84638-3 0  9995
2 69613  51.8812 323.2782 0006800 272.1344  87.8864 15.37983054  3634
KUIPER-00546            
1 69614U 26140Y   26183.77253731  .00050237  00000+0  12921-2 0  9997
2 69614  51.8820 323.1725 0015559 218.0645 141.9244 15.38646265  3639
KUIPER-00547            
1 69615U 26140Z   26183.65076732  .00040223  00000+0  10768-2 0  9990
2 69615  51.8819 323.8609 0010736 238.7248 121.2688 15.37577936  3614
KUIPER-00549            
1 69616U 26140AA  26183.79705566  .00026137  00000+0  71555-3 0  9990
2 69616  51.8813 323.3297 0006702 330.1329  29.9275 15.37138549  3633
KUIPER-00550            
1 69617U 26140AB  26184.41675926  .00022563  00000+0  67979-3 0  9991
2 69617  51.8800 320.5193 0006755  11.7628  89.9904 15.34221267  2974
KUIPER-00551            
1 69618U 26140AC  26183.77596276  .00054102  00000+0  14225-2 0  9999
2 69618  51.8808 323.1955 0012973 231.5182 128.4642 15.37975966  3631
KUIPER-00554            
1 69619U 26140AD  26183.77958599  .00028329  00000+0  75920-3 0  9992
2 69619  51.8821 323.2179 0012542 240.2784 119.6955 15.37700160  3634
KUIPER-00555            
1 69620U 26140AE  26183.77743888  .00048539  00000+0  12830-2 0  9992
2 69620  51.8845 323.2092 0012334 233.3236 126.6618 15.37868680  3636
KUIPER-00556            
1 69621U 26140AF  26183.77856787  .00049653  00000+0  13036-2 0  9993
2 69621  51.8815 323.2154 0012694 220.2395 139.7653 15.38061907  3635
KUIPER-00557            
1 69622U 26140AG  26184.41675926  .00020682  00000+0  56631-3 0  9990
2 69622  51.8826 320.1709 0009952 250.0437  24.7689 15.37250736  2552
KUIPER-00560            
1 69623U 26140AH  26183.78233951  .00052431  00000+0  13522-2 0  9996
2 69623  51.8805 323.2360 0009209 253.9860 106.0113 15.38623384  3634
KUIPER-00561            
1 69624U 26140AJ  26183.78393417  .00031660  00000+0  82900-3 0  9999
2 69624  51.8822 323.2556 0008102 257.4895 102.5186 15.38402074  3631
KUIPER-00564            
1 69625U 26140AK  26183.78087956  .00027772  00000+0  72055-3 0  9997
2 69625  51.8808 323.2317 0009530 243.9675 116.0331 15.38741718  3636
KUIPER-00567            
1 69626U 26140AL  26183.77679072  .00039215  00000+0  10277-2 0  9995
2 69626  51.8792 323.2016 0013748 222.3970 137.5956 15.38209928  3633
KUIPER-00573            
1 69627U 26140AM  26183.78517735  .00026605  00000+0  72311-3 0  9991
2 69627  51.8793 323.2547 0010043 233.5663 126.4399 15.37326880  3636
